[{"OBJECT_NAME":"STARLINK-4506","OBJECT_ID":"2022-101AD","EPOCH":"2026-03-09T09:28:50.249856","MEAN_MOTION":15.08845579,"ECCENTRICITY":0.00014825,"INCLINATION":53.2176,"RA_OF_ASC_NODE":65.4516,"ARG_OF_PERICENTER":94.2524,"MEAN_ANOMALY":265.8638,"EPHEMERIS_TYPE":0,"CLASSIFICATION_TYPE":"U","NORAD_CAT_ID":53554,"ELEMENT_SET_NO":999,"REV_AT_EPOCH":19626,"BSTAR":-5.6288253e-5,"MEAN_MOTION_DOT":-1.184e-5,"MEAN_MOTION_DDOT":0},{"OBJECT_NAME":"CZ-6A DEB","OBJECT_ID":"2024-140RN","EPOCH":"2026-03-09T09:36:23.350464","MEAN_MOTION":14.99974811,"ECCENTRICITY":0.0047719,"INCLINATION":88.1445,"RA_OF_ASC_NODE":217.6461,"ARG_OF_PERICENTER":172.1525,"MEAN_ANOMALY":188.0467,"EPHEMERIS_TYPE":0,"CLASSIFICATION_TYPE":"U","NORAD_CAT_ID":61168,"ELEMENT_SET_NO":999,"REV_AT_EPOCH":8322,"BSTAR":0.0063622011,"MEAN_MOTION_DOT":0.00081758,"MEAN_MOTION_DDOT":0}]
